[{"OBJECT_NAME":"STARLINK-4253","OBJECT_ID":"2022-076U","EPOCH":"2026-03-09T11:30:39.693312","MEAN_MOTION":15.08837514,"ECCENTRICITY":0.00011418,"INCLINATION":53.2168,"RA_OF_ASC_NODE":95.0645,"ARG_OF_PERICENTER":99.2323,"MEAN_ANOMALY":260.8799,"EPHEMERIS_TYPE":0,"CLASSIFICATION_TYPE":"U","NORAD_CAT_ID":53004,"ELEMENT_SET_NO":999,"REV_AT_EPOCH":20281,"BSTAR":-1.997955e-6,"MEAN_MOTION_DOT":-3.2e-6,"MEAN_MOTION_DDOT":0},{"OBJECT_NAME":"HALCA (MUSES-B)","OBJECT_ID":"1997-005A","EPOCH":"2026-03-08T02:16:30.359712","MEAN_MOTION":3.84736603,"ECCENTRICITY":0.59802638,"INCLINATION":31.3305,"RA_OF_ASC_NODE":338.8586,"ARG_OF_PERICENTER":124.358,"MEAN_ANOMALY":1.0484,"EPHEMERIS_TYPE":0,"CLASSIFICATION_TYPE":"U","NORAD_CAT_ID":24720,"ELEMENT_SET_NO":999,"REV_AT_EPOCH":40577,"BSTAR":0.0016676195,"MEAN_MOTION_DOT":3.34e-6,"MEAN_MOTION_DDOT":0}]
